{
  "type": "FeatureCollection",
  "features": [
    {
      "type": "Feature",
      "properties": {
        "norad_id": 43564,
        "name": "GSAT0221 (GALILEO 25)",
        "group": "galileo",
        "lat": -29.619527098772046,
        "lon": -34.77672385854238,
        "alt_km": 23210.636155325697,
        "timestamp": "2025-12-16T13:52:37.786491+00:00",
        "meta_object_name": "GSAT0221 (GALILEO 25)",
        "meta_object_id": "2018-060A",
        "meta_epoch": "2025-12-13T16:53:40.160256",
        "meta_mean_motion": 1.70475883,
        "meta_eccentricity": 0.00067122,
        "meta_inclination": 57.2276,
        "meta_ra_of_asc_node": 346.7914,
        "meta_arg_of_pericenter": 283.6018,
        "meta_mean_anomaly": 76.3423,
        "meta_ephemeris_type": 0,
        "meta_classification_type": "U",
        "meta_norad_cat_id": 43564,
        "meta_element_set_no": 999,
        "meta_rev_at_epoch": 4600,
        "meta_bstar": 0,
        "meta_mean_motion_dot": -8.5e-07,
        "meta_mean_motion_ddot": 0,
        "tle_line1": "1 43564U 18060A   25347.70393704 -.00000085  00000+0  00000+0 0  9993",
        "tle_line2": "2 43564  57.2276 346.7914 0006712 283.6018  76.3423  1.70475883 46009"
      },
      "geometry": {
        "type": "Point",
        "coordinates": [
          -34.77672385854238,
          -29.619527098772046
        ]
      }
    },
    {
      "type": "Feature",
      "properties": {
        "norad_id": 43565,
        "name": "GSAT0222 (GALILEO 26)",
        "group": "galileo",
        "lat": -7.8100675602236365,
        "lon": 171.78422885915955,
        "alt_km": 23218.690146429202,
        "timestamp": "2025-12-16T13:52:37.786503+00:00",
        "meta_object_name": "GSAT0222 (GALILEO 26)",
        "meta_object_id": "2018-060B",
        "meta_epoch": "2025-12-14T12:14:12.279840",
        "meta_mean_motion": 1.70475606,
        "meta_eccentricity": 0.00061133,
        "meta_inclination": 57.2308,
        "meta_ra_of_asc_node": 346.7727,
        "meta_arg_of_pericenter": 264.5011,
        "meta_mean_anomaly": 95.4481,
        "meta_ephemeris_type": 0,
        "meta_classification_type": "U",
        "meta_norad_cat_id": 43565,
        "meta_element_set_no": 999,
        "meta_rev_at_epoch": 4606,
        "meta_bstar": 0,
        "meta_mean_motion_dot": -8.4e-07,
        "meta_mean_motion_ddot": 0,
        "tle_line1": "1 43565U 18060B   25348.50986435 -.00000084  00000+0  00000+0 0  9991",
        "tle_line2": "2 43565  57.2308 346.7727 0006113 264.5011  95.4481  1.70475606 46069"
      },
      "geometry": {
        "type": "Point",
        "coordinates": [
          171.78422885915955,
          -7.8100675602236365
        ]
      }
    },
    {
      "type": "Feature",
      "properties": {
        "norad_id": 43566,
        "name": "GSAT0219 (GALILEO 23)",
        "group": "galileo",
        "lat": 42.630480155455345,
        "lon": 23.08995444292969,
        "alt_km": 23227.10751840522,
        "timestamp": "2025-12-16T13:52:37.786514+00:00",
        "meta_object_name": "GSAT0219 (GALILEO 23)",
        "meta_object_id": "2018-060C",
        "meta_epoch": "2025-12-15T07:37:19.968672",
        "meta_mean_motion": 1.70475843,
        "meta_eccentricity": 0.00058028,
        "meta_inclination": 57.2299,
        "meta_ra_of_asc_node": 346.7524,
        "meta_arg_of_pericenter": 287.2697,
        "meta_mean_anomaly": 72.6854,
        "meta_ephemeris_type": 0,
        "meta_classification_type": "U",
        "meta_norad_cat_id": 43566,
        "meta_element_set_no": 999,
        "meta_rev_at_epoch": 4605,
        "meta_bstar": 0,
        "meta_mean_motion_dot": -8.3e-07,
        "meta_mean_motion_ddot": 0,
        "tle_line1": "1 43566U 18060C   25349.31759223 -.00000083  00000+0  00000+0 0  9994",
        "tle_line2": "2 43566  57.2299 346.7524 0005802 287.2697  72.6854  1.70475843 46053"
      },
      "geometry": {
        "type": "Point",
        "coordinates": [
          23.08995444292969,
          42.630480155455345
        ]
      }
    },
    {
      "type": "Feature",
      "properties": {
        "norad_id": 43567,
        "name": "GSAT0220 (GALILEO 24)",
        "group": "galileo",
        "lat": -56.34608862541826,
        "lon": -88.68449022333127,
        "alt_km": 23210.04428182123,
        "timestamp": "2025-12-16T13:52:37.786525+00:00",
        "meta_object_name": "GSAT0220 (GALILEO 24)",
        "meta_object_id": "2018-060D",
        "meta_epoch": "2025-12-13T18:41:25.404000",
        "meta_mean_motion": 1.70475925,
        "meta_eccentricity": 0.00061008,
        "meta_inclination": 57.2299,
        "meta_ra_of_asc_node": 346.7937,
        "meta_arg_of_pericenter": 285.541,
        "meta_mean_anomaly": 74.4106,
        "meta_ephemeris_type": 0,
        "meta_classification_type": "U",
        "meta_norad_cat_id": 43567,
        "meta_element_set_no": 999,
        "meta_rev_at_epoch": 4601,
        "meta_bstar": 0,
        "meta_mean_motion_dot": -8.5e-07,
        "meta_mean_motion_ddot": 0,
        "tle_line1": "1 43567U 18060D   25347.77876625 -.00000085  00000+0  00000+0 0  9991",
        "tle_line2": "2 43567  57.2299 346.7937 0006100 285.5410  74.4106  1.70475925 46015"
      },
      "geometry": {
        "type": "Point",
        "coordinates": [
          -88.68449022333127,
          -56.34608862541826
        ]
      }
    },
    {
      "type": "Feature",
      "properties": {
        "norad_id": 49809,
        "name": "GSAT0223 (GALILEO 27)",
        "group": "galileo",
        "lat": 7.399906405385841,
        "lon": -8.591736052110898,
        "alt_km": 23227.563947501567,
        "timestamp": "2025-12-16T13:52:37.786537+00:00",
        "meta_object_name": "GSAT0223 (GALILEO 27)",
        "meta_object_id": "2021-116A",
        "meta_epoch": "2025-12-10T02:39:25.687008",
        "meta_mean_motion": 1.70475768,
        "meta_eccentricity": 0.000463,
        "meta_inclination": 57.2198,
        "meta_ra_of_asc_node": 346.7831,
        "meta_arg_of_pericenter": 251.6037,
        "meta_mean_anomaly": 107.9349,
        "meta_ephemeris_type": 0,
        "meta_classification_type": "U",
        "meta_norad_cat_id": 49809,
        "meta_element_set_no": 999,
        "meta_rev_at_epoch": 2495,
        "meta_bstar": 0,
        "meta_mean_motion_dot": -8.7e-07,
        "meta_mean_motion_ddot": 0,
        "tle_line1": "1 49809U 21116A   25344.11071397 -.00000087  00000+0  00000+0 0  9992",
        "tle_line2": "2 49809  57.2198 346.7831 0004630 251.6037 107.9349  1.70475768 24951"
      },
      "geometry": {
        "type": "Point",
        "coordinates": [
          -8.591736052110898,
          7.399906405385841
        ]
      }
    },
    {
      "type": "Feature",
      "properties": {
        "norad_id": 49810,
        "name": "GSAT0224 (GALILEO 28)",
        "group": "galileo",
        "lat": 45.863387624350906,
        "lon": 124.98217285339354,
        "alt_km": 23224.65490841883,
        "timestamp": "2025-12-16T13:52:37.786549+00:00",
        "meta_object_name": "GSAT0224 (GALILEO 28)",
        "meta_object_id": "2021-116B",
        "meta_epoch": "2025-12-14T00:56:09.559392",
        "meta_mean_motion": 1.70476108,
        "meta_eccentricity": 0.00038616,
        "meta_inclination": 57.22,
        "meta_ra_of_asc_node": 346.6758,
        "meta_arg_of_pericenter": 256.6425,
        "meta_mean_anomaly": 106.3645,
        "meta_ephemeris_type": 0,
        "meta_classification_type": "U",
        "meta_norad_cat_id": 49810,
        "meta_element_set_no": 999,
        "meta_rev_at_epoch": 2505,
        "meta_bstar": 0,
        "meta_mean_motion_dot": -8.5e-07,
        "meta_mean_motion_ddot": 0,
        "tle_line1": "1 49810U 21116B   25348.03899953 -.00000085  00000+0  00000+0 0  9993",
        "tle_line2": "2 49810  57.2200 346.6758 0003861 256.6425 106.3645  1.70476108 25058"
      },
      "geometry": {
        "type": "Point",
        "coordinates": [
          124.98217285339354,
          45.863387624350906
        ]
      }
    },
    {
      "type": "Feature",
      "properties": {
        "norad_id": 59598,
        "name": "GSAT0225 (GALILEO 29)",
        "group": "galileo",
        "lat": 48.49334339868419,
        "lon": -126.09137164388983,
        "alt_km": 23213.696394749804,
        "timestamp": "2025-12-16T13:52:37.786560+00:00",
        "meta_object_name": "GSAT0225 (GALILEO 29)",
        "meta_object_id": "2024-079A",
        "meta_epoch": "2025-12-13T14:17:14.853120",
        "meta_mean_motion": 1.7047497,
        "meta_eccentricity": 0.00020845,
        "meta_inclination": 55.0023,
        "meta_ra_of_asc_node": 106.2711,
        "meta_arg_of_pericenter": 178.8578,
        "meta_mean_anomaly": 264.3288,
        "meta_ephemeris_type": 0,
        "meta_classification_type": "U",
        "meta_norad_cat_id": 59598,
        "meta_element_set_no": 999,
        "meta_rev_at_epoch": 1015,
        "meta_bstar": 0,
        "meta_mean_motion_dot": -1e-08,
        "meta_mean_motion_ddot": 0,
        "tle_line1": "1 59598U 24079A   25347.59531080 -.00000001  00000+0  00000+0 0  9990",
        "tle_line2": "2 59598  55.0023 106.2711 0002084 178.8578 264.3288  1.70474970 10158"
      },
      "geometry": {
        "type": "Point",
        "coordinates": [
          -126.09137164388983,
          48.49334339868419
        ]
      }
    }
  ]
}